0 SL-24 DEB
1 28813U 05031E   13282.20053316  .00003676  00000-0  28768-3 0  5146
2 28813 098.0986 307.0064 0015626 241.0155 181.4338 15.01633847443582
0 SL-24 DEB
1 28813U 05031E   13287.19433569  .00003477  00000-0  27212-3 0  5165
2 28813 098.0975 312.2151 0016169 224.1594 177.7760 15.01661050444335
0 SL-24 DEB
1 28813U 05031E   13289.19656942  .00005284  00000-0  41050-3 0  5174
2 28813 098.0961 314.3034 0016481 217.9273 201.4330 15.01680050444636
0 SL-24 DEB
1 28813U 05031E   13291.47679507  .00004276  00000-0  33307-3 0  5187
2 28813 098.0946 316.6812 0016777 210.5568 288.2727 15.01696111444977
0 SL-24 DEB
1 28813U 05031E   13293.86830382  .00004579  00000-0  35609-3 0  5196
2 28813 098.0936 319.1743 0017058 203.1089 256.5670 15.01710578445336
0 SL-24 DEB
1 28813U 05031E   13295.74012683  .00004914  00000-0  38160-3 0  5201
2 28813 098.0932 321.1255 0017241 197.2273 295.6242 15.01723830445610
